STARLINK-5833           
1 55773U 23028AJ  26068.70689438  .00000549  00000+0  53827-4 0  9995
2 55773  70.0002 224.4904 0003046 270.7913  89.2897 14.98333799166535
SATGUS                  
1 62713U 25009DJ  26068.70670884  .00009370  00000+0  76063-3 0  9990
2 62713  97.7097 150.9679 0005670  96.3538 263.8332 14.99840473 62643
